STARLINK-11083 [DTC]    
1 59424U 24065D   25296.49265201  .00001363  00000+0  16102-4 0  9990
2 59424  53.1583  50.2985 0001004  78.3167 281.7964 15.69716816 89922
STARLINK-11085 [DTC]    
1 59425U 24065E   25296.60527466  .00002775  00000+0  27768-4 0  9996
2 59425  53.1588  49.5734 0000696  88.6873 271.4225 15.69694012 89946
STARLINK-31757          
1 59427U 24065G   25296.02994921  .00001247  00000+0  54234-4 0  9999
2 59427  53.1601 201.0621 0000795  70.6417 289.4670 15.30183105 87854
STARLINK-31773          
1 59429U 24065J   25296.46868843  .00006292  00000+0  22456-3 0  9997
2 59429  53.1609 200.9472 0000577  60.8547 299.2511 15.30171705 87899
STARLINK-31772          
1 59430U 24065K   25296.47132303  .00004726  00000+0  17172-3 0  9994
2 59430  53.1606 198.8271 0001190  84.9801 275.1335 15.30172779 87925
STARLINK-31613          
1 59431U 24065L   25296.15740909 -.00001032  00000+0 -22744-4 0  9998
2 59431  53.1597 200.4225 0000385 129.8776 230.2258 15.30196485 87879
STARLINK-31780          
1 59432U 24065M   25296.42605373  .00002774  00000+0  10576-3 0  9995
2 59432  53.1599 199.2553 0001478 109.2750 250.8410 15.30196040 87919
STARLINK-31740          
1 59433U 24065N   25296.46657150  .00000115  00000+0  16014-4 0  9991
2 59433  53.1632 200.9329 0001223  93.0443 267.0698 15.30191929 87892
STARLINK-31580          
1 59434U 24065P   25296.47500695 -.00000287  00000+0  24212-5 0  9995
2 59434  53.1607 200.9886 0000957  78.2454 281.8654 15.30203335 87894
STARLINK-31696          
1 59435U 24065Q   25296.02361620  .00000309  00000+0  22564-4 0  9991
2 59435  53.1599 201.0115 0001084  55.8845 304.2259 15.30188945 87855
STARLINK-31700          
1 59436U 24065R   25296.01727569  .00000301  00000+0  22293-4 0  9990
2 59436  53.1589 200.9693 0000830  88.6809 271.4287 15.30202170 87859
STARLINK-31706          
1 59437U 24065S   25296.46763136  .00001257  00000+0  54573-4 0  9997
2 59437  53.1619 200.9460 0001446  90.8425 269.2742 15.30187450 87897
STARLINK-31711          
1 59438U 24065T   25296.15107555  .00000296  00000+0  22117-4 0  9992
2 59438  53.1608 200.3806 0000969  95.4344 264.6767 15.30196905 87873
STARLINK-31708          
1 59439U 24065U   25296.46814566  .00001160  00000+0  51297-4 0  9996
2 59439  53.1603 198.8094 0000966  87.4330 272.6782 15.30195776 87929
STARLINK-31693          
1 59441U 24065W   25296.42816163  .00000939  00000+0  43803-4 0  9997
2 59441  53.1599 199.2678 0000775 138.0583 222.0477 15.30197198 87919
