[{"OBJECT_NAME":"STARLINK-11083 [DTC]","OBJECT_ID":"2024-065D","EPOCH":"2025-10-23T11:49:25.132800","MEAN_MOTION":15.69716816,"ECCENTRICITY":0.0001004,"INCLINATION":53.1583,"RA_OF_ASC_NODE":50.2985,"ARG_OF_PERICENTER":78.3167,"MEAN_ANOMALY":281.7964,"EPHEMERIS_TYPE":0,"CLASSIFICATION_TYPE":"U","NORAD_CAT_ID":59424,"ELEMENT_SET_NO":999,"REV_AT_EPOCH":8992,"BSTAR":1.6102e-5,"MEAN_MOTION_DOT":1.363e-5,"MEAN_MOTION_DDOT":0},{"OBJECT_NAME":"STARLINK-11085 [DTC]","OBJECT_ID":"2024-065E","EPOCH":"2025-10-23T14:31:35.729760","MEAN_MOTION":15.69694012,"ECCENTRICITY":6.97e-5,"INCLINATION":53.1588,"RA_OF_ASC_NODE":49.5734,"ARG_OF_PERICENTER":88.6873,"MEAN_ANOMALY":271.4225,"EPHEMERIS_TYPE":0,"CLASSIFICATION_TYPE":"U","NORAD_CAT_ID":59425,"ELEMENT_SET_NO":999,"REV_AT_EPOCH":8994,"BSTAR":2.7768e-5,"MEAN_MOTION_DOT":2.775e-5,"MEAN_MOTION_DDOT":0},{"OBJECT_NAME":"STARLINK-31757","OBJECT_ID":"2024-065G","EPOCH":"2025-10-23T00:43:07.611744","MEAN_MOTION":15.30183105,"ECCENTRICITY":7.955e-5,"INCLINATION":53.1601,"RA_OF_ASC_NODE":201.0621,"ARG_OF_PERICENTER":70.6417,"MEAN_ANOMALY":289.467,"EPHEMERIS_TYPE":0,"CLASSIFICATION_TYPE":"U","NORAD_CAT_ID":59427,"ELEMENT_SET_NO":999,"REV_AT_EPOCH":8785,"BSTAR":5.4233882e-5,"MEAN_MOTION_DOT":1.247e-5,"MEAN_MOTION_DDOT":0},{"OBJECT_NAME":"STARLINK-31773","OBJECT_ID":"2024-065J","EPOCH":"2025-10-23T11:14:54.680352","MEAN_MOTION":15.30171705,"ECCENTRICITY":5.77e-5,"INCLINATION":53.1609,"RA_OF_ASC_NODE":200.9472,"ARG_OF_PERICENTER":60.8547,"MEAN_ANOMALY":299.2511,"EPHEMERIS_TYPE":0,"CLASSIFICATION_TYPE":"U","NORAD_CAT_ID":59429,"ELEMENT_SET_NO":999,"REV_AT_EPOCH":8789,"BSTAR":0.00022456,"MEAN_MOTION_DOT":6.292e-5,"MEAN_MOTION_DDOT":0},{"OBJECT_NAME":"STARLINK-31772","OBJECT_ID":"2024-065K","EPOCH":"2025-10-23T11:18:42.308928","MEAN_MOTION":15.30172779,"ECCENTRICITY":0.000119,"INCLINATION":53.1606,"RA_OF_ASC_NODE":198.8271,"ARG_OF_PERICENTER":84.9801,"MEAN_ANOMALY":275.1335,"EPHEMERIS_TYPE":0,"CLASSIFICATION_TYPE":"U","NORAD_CAT_ID":59430,"ELEMENT_SET_NO":999,"REV_AT_EPOCH":8792,"BSTAR":0.00017172,"MEAN_MOTION_DOT":4.726e-5,"MEAN_MOTION_DDOT":0},{"OBJECT_NAME":"STARLINK-31613","OBJECT_ID":"2024-065L","EPOCH":"2025-10-23T03:46:40.145376","MEAN_MOTION":15.30196485,"ECCENTRICITY":3.853e-5,"INCLINATION":53.1597,"RA_OF_ASC_NODE":200.4225,"ARG_OF_PERICENTER":129.8776,"MEAN_ANOMALY":230.2258,"EPHEMERIS_TYPE":0,"CLASSIFICATION_TYPE":"U","NORAD_CAT_ID":59431,"ELEMENT_SET_NO":999,"REV_AT_EPOCH":8787,"BSTAR":-2.2744119e-5,"MEAN_MOTION_DOT":-1.032e-5,"MEAN_MOTION_DDOT":0},{"OBJECT_NAME":"STARLINK-31780","OBJECT_ID":"2024-065M","EPOCH":"2025-10-23T10:13:31.042272","MEAN_MOTION":15.3019604,"ECCENTRICITY":0.0001478,"INCLINATION":53.1599,"RA_OF_ASC_NODE":199.2553,"ARG_OF_PERICENTER":109.275,"MEAN_ANOMALY":250.841,"EPHEMERIS_TYPE":0,"CLASSIFICATION_TYPE":"U","NORAD_CAT_ID":59432,"ELEMENT_SET_NO":999,"REV_AT_EPOCH":8791,"BSTAR":0.00010576,"MEAN_MOTION_DOT":2.774e-5,"MEAN_MOTION_DDOT":0},{"OBJECT_NAME":"STARLINK-31740","OBJECT_ID":"2024-065N","EPOCH":"2025-10-23T11:11:51.776736","MEAN_MOTION":15.30191929,"ECCENTRICITY":0.0001223,"INCLINATION":53.1632,"RA_OF_ASC_NODE":200.9329,"ARG_OF_PERICENTER":93.0443,"MEAN_ANOMALY":267.0698,"EPHEMERIS_TYPE":0,"CLASSIFICATION_TYPE":"U","NORAD_CAT_ID":59433,"ELEMENT_SET_NO":999,"REV_AT_EPOCH":8789,"BSTAR":1.6014e-5,"MEAN_MOTION_DOT":1.15e-6,"MEAN_MOTION_DDOT":0},{"OBJECT_NAME":"STARLINK-31580","OBJECT_ID":"2024-065P","EPOCH":"2025-10-23T11:24:00.599616","MEAN_MOTION":15.30203335,"ECCENTRICITY":9.58e-5,"INCLINATION":53.1607,"RA_OF_ASC_NODE":200.9886,"ARG_OF_PERICENTER":78.2454,"MEAN_ANOMALY":281.8654,"EPHEMERIS_TYPE":0,"CLASSIFICATION_TYPE":"U","NORAD_CAT_ID":59434,"ELEMENT_SET_NO":999,"REV_AT_EPOCH":8789,"BSTAR":2.4212e-6,"MEAN_MOTION_DOT":-2.87e-6,"MEAN_MOTION_DDOT":0},{"OBJECT_NAME":"STARLINK-31696","OBJECT_ID":"2024-065Q","EPOCH":"2025-10-23T00:34:00.439680","MEAN_MOTION":15.30188945,"ECCENTRICITY":0.00010844,"INCLINATION":53.1599,"RA_OF_ASC_NODE":201.0115,"ARG_OF_PERICENTER":55.8845,"MEAN_ANOMALY":304.2259,"EPHEMERIS_TYPE":0,"CLASSIFICATION_TYPE":"U","NORAD_CAT_ID":59435,"ELEMENT_SET_NO":999,"REV_AT_EPOCH":8785,"BSTAR":2.2564136e-5,"MEAN_MOTION_DOT":3.09e-6,"MEAN_MOTION_DDOT":0},{"OBJECT_NAME":"STARLINK-31700","OBJECT_ID":"2024-065R","EPOCH":"2025-10-23T00:24:52.619616","MEAN_MOTION":15.3020217,"ECCENTRICITY":8.304e-5,"INCLINATION":53.1589,"RA_OF_ASC_NODE":200.9693,"ARG_OF_PERICENTER":88.6809,"MEAN_ANOMALY":271.4287,"EPHEMERIS_TYPE":0,"CLASSIFICATION_TYPE":"U","NORAD_CAT_ID":59436,"ELEMENT_SET_NO":999,"REV_AT_EPOCH":8785,"BSTAR":2.2292752e-5,"MEAN_MOTION_DOT":3.01e-6,"MEAN_MOTION_DDOT":0},{"OBJECT_NAME":"STARLINK-31706","OBJECT_ID":"2024-065S","EPOCH":"2025-10-23T11:13:23.348640","MEAN_MOTION":15.3018745,"ECCENTRICITY":0.0001446,"INCLINATION":53.1619,"RA_OF_ASC_NODE":200.946,"ARG_OF_PERICENTER":90.8425,"MEAN_ANOMALY":269.2742,"EPHEMERIS_TYPE":0,"CLASSIFICATION_TYPE":"U","NORAD_CAT_ID":59437,"ELEMENT_SET_NO":999,"REV_AT_EPOCH":8789,"BSTAR":5.4573e-5,"MEAN_MOTION_DOT":1.257e-5,"MEAN_MOTION_DDOT":0},{"OBJECT_NAME":"STARLINK-31711","OBJECT_ID":"2024-065T","EPOCH":"2025-10-23T03:37:32.927520","MEAN_MOTION":15.30196905,"ECCENTRICITY":9.696e-5,"INCLINATION":53.1608,"RA_OF_ASC_NODE":200.3806,"ARG_OF_PERICENTER":95.4344,"MEAN_ANOMALY":264.6767,"EPHEMERIS_TYPE":0,"CLASSIFICATION_TYPE":"U","NORAD_CAT_ID":59438,"ELEMENT_SET_NO":999,"REV_AT_EPOCH":8787,"BSTAR":2.2117282e-5,"MEAN_MOTION_DOT":2.96e-6,"MEAN_MOTION_DDOT":0},{"OBJECT_NAME":"STARLINK-31708","OBJECT_ID":"2024-065U","EPOCH":"2025-10-23T11:14:07.785024","MEAN_MOTION":15.30195776,"ECCENTRICITY":9.66e-5,"INCLINATION":53.1603,"RA_OF_ASC_NODE":198.8094,"ARG_OF_PERICENTER":87.433,"MEAN_ANOMALY":272.6782,"EPHEMERIS_TYPE":0,"CLASSIFICATION_TYPE":"U","NORAD_CAT_ID":59439,"ELEMENT_SET_NO":999,"REV_AT_EPOCH":8792,"BSTAR":5.1297e-5,"MEAN_MOTION_DOT":1.16e-5,"MEAN_MOTION_DDOT":0},{"OBJECT_NAME":"STARLINK-31693","OBJECT_ID":"2024-065W","EPOCH":"2025-10-23T10:16:33.163968","MEAN_MOTION":15.30197198,"ECCENTRICITY":7.76e-5,"INCLINATION":53.1599,"RA_OF_ASC_NODE":199.2678,"ARG_OF_PERICENTER":138.0583,"MEAN_ANOMALY":222.0477,"EPHEMERIS_TYPE":0,"CLASSIFICATION_TYPE":"U","NORAD_CAT_ID":59441,"ELEMENT_SET_NO":999,"REV_AT_EPOCH":8791,"BSTAR":4.3803e-5,"MEAN_MOTION_DOT":9.39e-6,"MEAN_MOTION_DDOT":0}]
